{
  "type": "FeatureCollection",
  "features": [
    {
      "type": "Feature",
      "properties": {
        "norad_id": 66767,
        "name": "TRANSPORTER-15DF",
        "group": "last-30-days",
        "lat": -57.84299238046201,
        "lon": 83.772566255748,
        "alt_km": 519.0708249338468,
        "timestamp": "2025-12-26T05:31:11.217148+00:00",
        "meta_object_name": "TRANSPORTER-15DF",
        "meta_object_id": "2025-276DF",
        "meta_epoch": "2025-12-25T21:52:09.524640",
        "meta_mean_motion": 15.18355986,
        "meta_eccentricity": 0.00020471,
        "meta_inclination": 97.4364,
        "meta_ra_of_asc_node": 71.4682,
        "meta_arg_of_pericenter": 86.1326,
        "meta_mean_anomaly": 274.0143,
        "meta_ephemeris_type": 0,
        "meta_classification_type": "U",
        "meta_norad_cat_id": 66767,
        "meta_element_set_no": 999,
        "meta_rev_at_epoch": 412,
        "meta_bstar": 0.00023617927,
        "meta_mean_motion_dot": 4.784e-05,
        "meta_mean_motion_ddot": 0,
        "tle_line1": "1 66767U 25276DF  25359.91122135  .00004784  00000+0  23618-3 0  9997",
        "tle_line2": "2 66767  97.4364  71.4682 0002047  86.1326 274.0143 15.18355986  4123"
      },
      "geometry": {
        "type": "Point",
        "coordinates": [
          83.772566255748,
          -57.84299238046201
        ]
      }
    },
    {
      "type": "Feature",
      "properties": {
        "norad_id": 66768,
        "name": "TRANSPORTER-15DG",
        "group": "last-30-days",
        "lat": -44.19263409995906,
        "lon": 79.07727177247901,
        "alt_km": 517.5777917170662,
        "timestamp": "2025-12-26T05:31:11.217158+00:00",
        "meta_object_name": "TRANSPORTER-15DG",
        "meta_object_id": "2025-276DG",
        "meta_epoch": "2025-12-25T21:48:32.187168",
        "meta_mean_motion": 15.18569818,
        "meta_eccentricity": 0.00021364,
        "meta_inclination": 97.435,
        "meta_ra_of_asc_node": 71.4674,
        "meta_arg_of_pericenter": 74.1713,
        "meta_mean_anomaly": 285.9757,
        "meta_ephemeris_type": 0,
        "meta_classification_type": "U",
        "meta_norad_cat_id": 66768,
        "meta_element_set_no": 999,
        "meta_rev_at_epoch": 412,
        "meta_bstar": 0.00049996435,
        "meta_mean_motion_dot": 0.00010273,
        "meta_mean_motion_ddot": 0,
        "tle_line1": "1 66768U 25276DG  25359.90870587  .00010273  00000+0  49996-3 0  9995",
        "tle_line2": "2 66768  97.4350  71.4674 0002136  74.1713 285.9757 15.18569818  4129"
      },
      "geometry": {
        "type": "Point",
        "coordinates": [
          79.07727177247901,
          -44.19263409995906
        ]
      }
    },
    {
      "type": "Feature",
      "properties": {
        "norad_id": 66769,
        "name": "TRANSPORTER-15DH",
        "group": "last-30-days",
        "lat": -50.39233895004514,
        "lon": 80.88886988096945,
        "alt_km": 519.1621969056268,
        "timestamp": "2025-12-26T05:31:11.217168+00:00",
        "meta_object_name": "TRANSPORTER-15DH",
        "meta_object_id": "2025-276DH",
        "meta_epoch": "2025-12-25T21:50:10.077504",
        "meta_mean_motion": 15.18439382,
        "meta_eccentricity": 0.00027317,
        "meta_inclination": 97.4412,
        "meta_ra_of_asc_node": 71.4862,
        "meta_arg_of_pericenter": 101.9782,
        "meta_mean_anomaly": 258.1758,
        "meta_ephemeris_type": 0,
        "meta_classification_type": "U",
        "meta_norad_cat_id": 66769,
        "meta_element_set_no": 999,
        "meta_rev_at_epoch": 412,
        "meta_bstar": 0.00028549376,
        "meta_mean_motion_dot": 5.812e-05,
        "meta_mean_motion_ddot": 0,
        "tle_line1": "1 66769U 25276DH  25359.90983886  .00005812  00000+0  28549-3 0  9997",
        "tle_line2": "2 66769  97.4412  71.4862 0002731 101.9782 258.1758 15.18439382  4129"
      },
      "geometry": {
        "type": "Point",
        "coordinates": [
          80.88886988096945,
          -50.39233895004514
        ]
      }
    },
    {
      "type": "Feature",
      "properties": {
        "norad_id": 66770,
        "name": "TRANSPORTER-15DJ",
        "group": "last-30-days",
        "lat": -48.89241001368439,
        "lon": 80.43081715395486,
        "alt_km": 519.7572768912423,
        "timestamp": "2025-12-26T05:31:11.217178+00:00",
        "meta_object_name": "TRANSPORTER-15DJ",
        "meta_object_id": "2025-276DJ",
        "meta_epoch": "2025-12-25T21:49:45.361920",
        "meta_mean_motion": 15.18406616,
        "meta_eccentricity": 0.00033023,
        "meta_inclination": 97.4442,
        "meta_ra_of_asc_node": 71.4975,
        "meta_arg_of_pericenter": 116.6669,
        "meta_mean_anomaly": 243.4904,
        "meta_ephemeris_type": 0,
        "meta_classification_type": "U",
        "meta_norad_cat_id": 66770,
        "meta_element_set_no": 999,
        "meta_rev_at_epoch": 412,
        "meta_bstar": 0.00024857361,
        "meta_mean_motion_dot": 5.047e-05,
        "meta_mean_motion_ddot": 0,
        "tle_line1": "1 66770U 25276DJ  25359.90955280  .00005047  00000+0  24857-3 0  9994",
        "tle_line2": "2 66770  97.4442  71.4975 0003302 116.6669 243.4904 15.18406616  4125"
      },
      "geometry": {
        "type": "Point",
        "coordinates": [
          80.43081715395486,
          -48.89241001368439
        ]
      }
    },
    {
      "type": "Feature",
      "properties": {
        "norad_id": 66771,
        "name": "TRANSPORTER-15DK",
        "group": "last-30-days",
        "lat": -45.58006783275692,
        "lon": 79.47887283950834,
        "alt_km": 519.0550584856855,
        "timestamp": "2025-12-26T05:31:11.217190+00:00",
        "meta_object_name": "TRANSPORTER-15DK",
        "meta_object_id": "2025-276DK",
        "meta_epoch": "2025-12-25T21:48:53.568576",
        "meta_mean_motion": 15.18502756,
        "meta_eccentricity": 0.00030603,
        "meta_inclination": 97.4436,
        "meta_ra_of_asc_node": 71.4958,
        "meta_arg_of_pericenter": 109.3227,
        "meta_mean_anomaly": 250.8339,
        "meta_ephemeris_type": 0,
        "meta_classification_type": "U",
        "meta_norad_cat_id": 66771,
        "meta_element_set_no": 999,
        "meta_rev_at_epoch": 412,
        "meta_bstar": 0.00031634392,
        "meta_mean_motion_dot": 6.46e-05,
        "meta_mean_motion_ddot": 0,
        "tle_line1": "1 66771U 25276DK  25359.90895334  .00006460  00000+0  31634-3 0  9999",
        "tle_line2": "2 66771  97.4436  71.4958 0003060 109.3227 250.8339 15.18502756  4126"
      },
      "geometry": {
        "type": "Point",
        "coordinates": [
          79.47887283950834,
          -45.58006783275692
        ]
      }
    },
    {
      "type": "Feature",
      "properties": {
        "norad_id": 66772,
        "name": "TRANSPORTER-15DL",
        "group": "last-30-days",
        "lat": -29.54675369621074,
        "lon": 76.06472094029988,
        "alt_km": 516.6677098628661,
        "timestamp": "2025-12-26T05:31:11.217200+00:00",
        "meta_object_name": "TRANSPORTER-15DL",
        "meta_object_id": "2025-276DL",
        "meta_epoch": "2025-12-25T21:44:48.456096",
        "meta_mean_motion": 15.19094221,
        "meta_eccentricity": 0.00037006,
        "meta_inclination": 97.4427,
        "meta_ra_of_asc_node": 71.496,
        "meta_arg_of_pericenter": 154.4608,
        "meta_mean_anomaly": 205.681,
        "meta_ephemeris_type": 0,
        "meta_classification_type": "U",
        "meta_norad_cat_id": 66772,
        "meta_element_set_no": 999,
        "meta_rev_at_epoch": 412,
        "meta_bstar": 0.011266509,
        "meta_mean_motion_dot": 0.00244186,
        "meta_mean_motion_ddot": 0,
        "tle_line1": "1 66772U 25276DL  25359.90611639  .00244186  00000+0  11267-1 0  9991",
        "tle_line2": "2 66772  97.4427  71.4960 0003700 154.4608 205.6810 15.19094221  4121"
      },
      "geometry": {
        "type": "Point",
        "coordinates": [
          76.06472094029988,
          -29.54675369621074
        ]
      }
    },
    {
      "type": "Feature",
      "properties": {
        "norad_id": 66773,
        "name": "TRANSPORTER-15DM",
        "group": "last-30-days",
        "lat": -38.79328781108755,
        "lon": 77.84173051303749,
        "alt_km": 518.2204387894499,
        "timestamp": "2025-12-26T05:31:11.217210+00:00",
        "meta_object_name": "TRANSPORTER-15DM",
        "meta_object_id": "2025-276DM",
        "meta_epoch": "2025-12-25T21:47:05.283456",
        "meta_mean_motion": 15.18558607,
        "meta_eccentricity": 0.00031455,
        "meta_inclination": 97.4423,
        "meta_ra_of_asc_node": 71.493,
        "meta_arg_of_pericenter": 96.345,
        "meta_mean_anomaly": 263.8142,
        "meta_ephemeris_type": 0,
        "meta_classification_type": "U",
        "meta_norad_cat_id": 66773,
        "meta_element_set_no": 999,
        "meta_rev_at_epoch": 412,
        "meta_bstar": 0.00030584887,
        "meta_mean_motion_dot": 6.253e-05,
        "meta_mean_motion_ddot": 0,
        "tle_line1": "1 66773U 25276DM  25359.90770004  .00006253  00000+0  30585-3 0  9991",
        "tle_line2": "2 66773  97.4423  71.4930 0003145  96.3450 263.8142 15.18558607  4123"
      },
      "geometry": {
        "type": "Point",
        "coordinates": [
          77.84173051303749,
          -38.79328781108755
        ]
      }
    }
  ]
}